NORAD_CAT_ID,OBJECT_NAME,OBJECT_TYPE,EPOCH,MEAN_MOTION,ECCENTRICITY,INCLINATION,RA_OF_ASC_NODE,ARG_OF_PERICENTER,MEAN_ANOMALY,BSTAR,MEAN_MOTION_DOT,MEAN_MOTION_DDOT,TLE_LINE0,TLE_LINE1,TLE_LINE2,SEMIMAJOR_AXIS,PERIOD,APOGEE,PERIGEE,DECAYED
51886.0,STARLINK-3565,PAYLOAD,2024-08-12 19:11:30,15.08862809,4.67e-05,53.2175,55.4089,94.3782,265.7263,0.0006163,9.54e-05,0.0,0 STARLINK-3565,1 51886U 22022AL  24225.79965552  .00009540  00000-0  61630-3 0  9996,2 51886  53.2175  55.4089 0000467  94.3782 265.7263 15.08862809136619,6917.811,95.436,539.999,539.353,0.0
51886.0,STARLINK-3565,PAYLOAD,2024-08-12 22:22:16,15.08879233,0.0001425,53.218,54.8153,82.7995,277.3159,0.00096939,0.0001519,0.0,0 STARLINK-3565,1 51886U 22022AL  24225.93213155  .00015190  00000-0  96939-3 0  9995,2 51886  53.2180  54.8153 0001425  82.7995 277.3159 15.08879233136636,6917.76,95.435,540.611,538.64,0.0
51886.0,STARLINK-3565,PAYLOAD,2024-08-13 12:40:45,15.08838245,0.0002871,53.2062,52.1341,106.9181,253.2126,-0.00020845,-3.605e-05,0.0,0 STARLINK-3565,1 51886U 22022AL  24226.52829952 -.00003605  00000-0 -20845-3 0  9992,2 51886  53.2062  52.1341 0002871 106.9181 253.2126 15.08838245136722,6917.886,95.438,541.737,537.765,0.0
51886.0,STARLINK-3565,PAYLOAD,2024-08-13 19:02:18,15.0881311,0.0001858,53.2096,50.9491,91.8822,268.2383,-0.00073145,-0.00011902,0.0,0 STARLINK-3565,1 51886U 22022AL  24226.79326920 -.00011902  00000-0 -73145-3 0  9998,2 51886  53.2096  50.9491 0001858  91.8822 268.2383 15.08813110136768,6917.963,95.439,541.113,538.542,0.0
51886.0,STARLINK-3565,PAYLOAD,2024-08-13 22:13:05,15.08809673,0.0001629,53.2142,50.3574,88.4117,271.7061,-0.00064847,-0.00010585,0.0,0 STARLINK-3565,1 51886U 22022AL  24226.92575315 -.00010585  00000-0 -64847-3 0  9992,2 51886  53.2142  50.3574 0001629  88.4117 271.7061 15.08809673136784,6917.973,95.439,540.965,538.711,0.0
51886.0,STARLINK-3565,PAYLOAD,2024-08-14 10:56:11,15.08812276,0.0001366,53.2182,47.9789,85.6637,274.4511,2.2331e-05,6.7e-07,0.0,0 STARLINK-3565,1 51886U 22022AL  24227.45568414  .00000067  00000-0  22331-4 0  9998,2 51886  53.2182  47.9789 0001366  85.6637 274.4511 15.08812276136864,6917.965,95.439,540.775,538.885,0.0
51886.0,STARLINK-3565,PAYLOAD,2024-08-14 18:53:07,15.08829638,0.0001252,53.2174,46.4921,83.138,276.9755,0.0011387,0.00017876,0.0,0 STARLINK-3565,1 51886U 22022AL  24227.78688752  .00017876  00000-0  11387-2 0  9995,2 51886  53.2174  46.4921 0001252  83.1380 276.9755 15.08829638136912,6917.912,95.438,540.643,538.911,0.0
51886.0,STARLINK-3565,PAYLOAD,2024-08-15 04:25:25,15.08847304,0.0001211,53.2174,44.708,80.8579,279.255,0.0010878,0.0001707,0.0,0 STARLINK-3565,1 51886U 22022AL  24228.18432666  .00017070  00000-0  10878-2 0  9991,2 51886  53.2174  44.7080 0001211  80.8579 279.2550 15.08847304136973,6917.858,95.437,540.561,538.885,0.0
51886.0,STARLINK-3565,PAYLOAD,2024-08-15 18:43:53,15.08865697,0.0001207,53.2174,42.032,79.6462,280.4666,0.001027,0.00016106,0.0,0 STARLINK-3565,1 51886U 22022AL  24228.78047988  .00016106  00000-0  10270-2 0  9991,2 51886  53.2174  42.0320 0001207  79.6462 280.4666 15.08865697137061,6917.802,95.436,540.502,538.832,0.0
51886.0,STARLINK-3565,PAYLOAD,2024-08-16 04:16:11,15.08882812,0.0001201,53.2174,40.2474,81.1998,278.913,0.0011856,0.00018653,0.0,0 STARLINK-3565,1 51886U 22022AL  24229.17791014  .00018653  00000-0  11856-2 0  9991,2 51886  53.2174  40.2474 0001201  81.1998 278.9130 15.08882812137120,6917.75,95.435,540.445,538.784,0.0
51886.0,STARLINK-3565,PAYLOAD,2024-08-17 20:00:50,15.08879486,0.0001624,53.2162,32.8154,101.5569,258.5605,0.0019352,0.00030679,0.0,0 STARLINK-3565,1 51886U 22022AL  24230.83391913  .00030679  00000-0  19352-2 0  9991,2 51886  53.2162  32.8154 0001624 101.5569 258.5605 15.08879486137370,6917.76,95.435,540.748,538.501,0.0
51886.0,STARLINK-3565,PAYLOAD,2024-08-18 19:51:37,15.08847861,0.0001163,53.2168,28.3511,86.1479,273.9646,0.0007156,0.00011122,0.0,0 STARLINK-3565,1 51886U 22022AL  24231.82751832  .00011122  00000-0  71560-3 0  9993,2 51886  53.2168  28.3511 0001163  86.1479 273.9646 15.08847861137524,6917.856,95.437,540.526,538.917,0.0
51886.0,STARLINK-3565,PAYLOAD,2024-08-19 03:48:33,15.08851216,0.0001197,53.2168,26.8642,83.7432,276.3696,0.00055967,8.633e-05,0.0,0 STARLINK-3565,1 51886U 22022AL  24232.15871631  .00008633  00000-0  55967-3 0  9996,2 51886  53.2168  26.8642 0001197  83.7432 276.3696 15.08851216137577,6917.846,95.437,540.539,538.883,0.0
51886.0,STARLINK-3565,PAYLOAD,2024-08-19 19:42:24,15.08837967,0.0001168,53.217,23.8901,99.9217,260.1907,4.6005e-05,4.44e-06,0.0,0 STARLINK-3565,1 51886U 22022AL  24232.82111851  .00000444  00000-0  46005-4 0  9997,2 51886  53.2170  23.8901 0001168  99.9217 260.1907 15.08837967137677,6917.887,95.438,540.56,538.944,0.0
51886.0,STARLINK-3565,PAYLOAD,2024-08-20 14:47:02,15.08848474,0.0001614,53.2181,20.3226,91.6652,268.4525,0.00021785,3.182e-05,0.0,0 STARLINK-3565,1 51886U 22022AL  24233.61599723  .00003182  00000-0  21785-3 0  9992,2 51886  53.2181  20.3226 0001614  91.6652 268.4525 15.08848474137794,6917.854,95.437,540.836,538.603,0.0
51886.0,STARLINK-3565,PAYLOAD,2024-08-20 16:22:25,15.08849774,0.0001615,53.2184,20.0256,92.0857,268.032,0.0002623,3.89e-05,0.0,0 STARLINK-3565,1 51886U 22022AL  24233.68223672  .00003890  00000-0  26230-3 0  9992,2 51886  53.2184  20.0256 0001615  92.0857 268.0320 15.08849774137805,6917.851,95.437,540.833,538.598,0.0
51886.0,STARLINK-3565,PAYLOAD,2024-08-21 13:02:26,15.08845317,0.0002049,53.2193,16.1553,88.7545,271.3682,0.00013614,1.879e-05,0.0,0 STARLINK-3565,1 51886U 22022AL  24234.54335963  .00001879  00000-0  13614-3 0  9992,2 51886  53.2193  16.1553 0002049  88.7545 271.3682 15.08845317137930,6917.864,95.437,541.147,538.312,0.0
51886.0,STARLINK-3565,PAYLOAD,2024-08-21 14:37:49,15.08843771,0.0001653,53.2181,15.8576,92.286,267.8322,0.00013587,1.875e-05,0.0,0 STARLINK-3565,1 51886U 22022AL  24234.60959837  .00001875  00000-0  13587-3 0  9996,2 51886  53.2181  15.8576 0001653  92.2860 267.8322 15.08843771137942,6917.869,95.437,540.877,538.59,0.0
51886.0,STARLINK-3565,PAYLOAD,2024-08-21 16:13:12,15.08839117,0.0001317,53.2189,15.5626,88.0392,272.0751,3.6771e-06,-2.29e-06,0.0,0 STARLINK-3565,1 51886U 22022AL  24234.67583865 -.00000229  00000-0  36771-5 0  9992,2 51886  53.2189  15.5626 0001317  88.0392 272.0751 15.08839117137957,6917.883,95.438,540.659,538.837,0.0
